KKS-1 (KISEKI)          
1 33499U 09002H   26178.17405571  .00001343  00000+0  17153-3 0  9993
2 33499  98.1187 100.7747 0006395 256.2471 103.8030 14.83147944937672
UK-DMC 2                
1 35683U 09041C   26178.19089669  .00001290  00000+0  19424-3 0  9995
2 35683  97.8847 312.9132 0001185 103.7727 256.3615 14.76070601908044
OCEANSAT-2              
1 35931U 09051A   26178.20757331 -.00000232  00000+0 -13283-3 0  9996
2 35931  98.2319 164.0591 0016034 206.0247 154.0115 13.99661232880731
SWISSCUBE               
1 35932U 09051B   26178.02071692  .00000965  00000+0  20010-3 0  9993
2 35932  98.4029  86.0801 0006677 170.6881 189.4445 14.62499043890594
BEESAT-1                
1 35933U 09051C   26177.69301354  .00000752  00000+0  16076-3 0  9998
2 35933  98.3957  85.3622 0004848 183.3217 176.7952 14.61734342890572
ITUPSAT1                
1 35935U 09051E   26177.69222981  .00000700  00000+0  15443-3 0  9998
2 35935  98.4042  84.5432 0006750 199.9772 160.1164 14.60453570890126
DMSP 5D-3 F18 (USA 210) 
1 35951U 09057A   26178.18272896  .00000233  00000+0  14355-3 0  9999
2 35951  98.9041 158.9303 0010209 218.1903 141.8548 14.14902243861007
PROBA-2                 
1 36037U 09059B   26178.07537042  .00000198  00000+0  56620-4 0  9994
2 36037  98.2451   1.2911 0012012 248.1591 111.8329 14.54866422882960
YAOGAN-7                
1 36110U 09069A   26178.17596926  .00000501  00000+0  76364-4 0  9999
2 36110  98.0061  63.9808 0024866  10.4768 349.6955 14.78019409891106
XIWANG-1 (HOPE-1)       
1 36122U 09072B   26178.12376630  .00000000  00000+0  11598-3 0  9990
2 36122 100.4023 131.7972 0007038 207.0962 152.9784 13.16440217794319
COSMOS 2463             
1 36519U 10017A   26178.18338468  .00000047  00000+0  34623-4 0  9990
2 36519  82.9597 242.3618 0037613 102.0793 318.1284 13.71666199809300
CARTOSAT-2B             
1 36795U 10035A   26178.15178309  .00000478  00000+0  72351-4 0  9997
2 36795  97.9954 228.6381 0012009 152.0628 208.1230 14.78672283861325
TISAT 1                 
1 36799U 10035E   26178.11120912  .00021359  00000+0  69124-3 0  9998
2 36799  98.0704 125.5427 0002787 151.6215 208.5177 15.32075173869226
YAOGAN-10               
1 36834U 10038A   26178.19188917  .00002275  00000+0  27056-3 0  9992
2 36834  97.8978 201.5165 0001768  86.1326   4.1549 14.85380916858696
SHIJIAN-6 04B (SJ-6 04B)
1 37180U 10051B   26178.16712838  .00001979  00000+0  16687-3 0  9992
2 37180  97.8706 183.6811 0006966 278.8876  81.1558 14.99345190857170
FENGYUN 3B              
1 37214U 10059A   26178.20935497  .00000176  00000+0  11444-3 0  9995
2 37214  98.9620 224.2663 0022492 155.7581 290.6820 14.14843393808844
COSMO-SKYMED 4          
1 37216U 10060A   26178.16526763  .00000145  00000+0  24819-4 0  9993
2 37216  97.8889   1.6206 0001480  84.2448 275.8934 14.82152245846042
O/OREOS (USA 219)       
1 37224U 10062C   26178.04056889  .00002307  00000+0  22310-3 0  9993
2 37224  71.9714  58.0196 0012924  42.0426 318.1734 14.93783616118111
RESOURCESAT-2           
1 37387U 11015A   26178.15376036  .00000085  00000+0  59101-4 0  9993
2 37387  98.7641 245.5266 0010547 224.0287 136.0051 14.21602089787592
YOUTHSAT                
1 37388U 11015B   26177.91067662  .00000165  00000+0  86880-4 0  9992
2 37388  98.3687 151.5265 0013610 317.5484  96.7992 14.25633964789021
APRIZESAT 6             
1 37793U 11044F   26178.02882318  .00000791  00000+0  11856-3 0  9995
2 37793  98.2359  88.7291 0044280  55.5096 316.0196 14.76930201798609
JUGNU                   
1 37839U 11058B   26177.91378177  .00000404  00000+0  71065-4 0  9991
2 37839  19.9597 249.3371 0018444 183.2856 332.8974 14.13779071760408
SRMSAT                  
1 37841U 11058D   26178.20632691  .00000372  00000+0  58207-4 0  9998
2 37841  19.9735 358.8265 0011727 314.5586 200.6524 14.11577536759231
SUOMI NPP               
1 37849U 11061A   26178.20858605  .00000049  00000+0  44305-4 0  9990
2 37849  98.7954 119.0162 0000958 337.1617  22.9516 14.19519329759869
YAOGAN-12               
1 37875U 11066B   26178.16307135  .00005112  00000+0  19696-3 0  9996
2 37875  97.1142 216.2624 0009849 178.7502 181.3764 15.26713978813561
BEIDOU-2 M4             
1 38251U 12018B   26177.24927973 -.00000103  00000+0  00000+0 0  9990
2 38251  55.6492 303.7834 0011701 273.7859  86.0713  1.86229631 96111
